WORLDVIEW-1 (WV-1)      
1 32060U 07041A   26204.78743058  .00005516  00000+0  22640-3 0  9992
2 32060  97.3901 324.0214 0002355 174.6972 185.4291 15.24631277 48458
WORLDVIEW-2 (WV-2)      
1 35946U 09055A   26204.83552628  .00000083  00000+0  41758-4 0  9998
2 35946  98.4750 277.7860 0005555 109.3414 250.8374 14.37908760880911
YAOGAN-10               
1 36834U 10038A   26204.87354344  .00001149  00000+0  13959-3 0  9992
2 36834  97.8979 227.9857 0001632  84.8810  38.2674 14.85448658862656
VNREDSAT 1              
1 39160U 13021B   26204.83777279  .00000271  00000+0  59215-4 0  9995
2 39160  97.9062 256.8436 0001522  81.8559 278.2817 14.64889117705651
WORLDVIEW-3 (WV-3)      
1 40115U 14048A   26204.82157712  .00000688  00000+0  86724-4 0  9997
2 40115  97.8550 279.1465 0001903 142.2739 217.8610 14.85074303647346
YAOGAN-21               
1 40143U 14053A   26204.86842595  .00005166  00000+0  19844-3 0  9992
2 40143  97.1462 243.5369 0006661 335.9239  24.1688 15.26841290660557
UMBRA-09                
1 60541U 24149CB  26204.50642094  .00016444  00000+0  78713-3 0  9997
2 60541  97.6968 292.3595 0002156 184.1579 175.9637 15.19041217106238
UMBRA-10                
1 60547U 24149CH  26204.70358792  .00016966  00000+0  81168-3 0  9991
2 60547  97.6971 292.5913 0002159 151.5750 208.5602 15.19051522106275
UMBRA-11                
1 66748U 25276CL  26204.15756170  .00022872  00000+0  83778-3 0  9995
2 66748  97.4181 278.5960 0003310 165.5406 194.5929 15.28018804 35985
UMBRA-12                
1 67371U 26004J   26204.45146693  .00004116  00000+0  43683-3 0  9996
2 67371  97.8032 202.7271 0006716  29.9235 330.2366 14.89582160 28700
